2025-313BD              
1 67299U 25313BD  26068.62968741  .00081010  00000+0  27634-2 0  9995
2 67299  97.3970 145.2850 0007287 333.4514  26.6352 15.30002360 10838
STARLINK-36531          
1 67513U 26012W   26068.05503684  .00028282  00000+0  10328-2 0  9993
2 67513  43.0005 318.0742 0001404 278.5681  81.5012 15.27596986  7661
