[{"OBJECT_NAME":"OBJECT BD","OBJECT_ID":"2025-313BD","EPOCH":"2026-03-09T15:06:44.992224","MEAN_MOTION":15.3000236,"ECCENTRICITY":0.00072867,"INCLINATION":97.397,"RA_OF_ASC_NODE":145.285,"ARG_OF_PERICENTER":333.4514,"MEAN_ANOMALY":26.6352,"EPHEMERIS_TYPE":0,"CLASSIFICATION_TYPE":"U","NORAD_CAT_ID":67299,"ELEMENT_SET_NO":999,"REV_AT_EPOCH":1083,"BSTAR":0.0027633805,"MEAN_MOTION_DOT":0.0008101,"MEAN_MOTION_DDOT":0},{"OBJECT_NAME":"STARLINK-36531","OBJECT_ID":"2026-012W","EPOCH":"2026-03-09T01:19:15.182976","MEAN_MOTION":15.27596986,"ECCENTRICITY":0.00014047,"INCLINATION":43.0005,"RA_OF_ASC_NODE":318.0742,"ARG_OF_PERICENTER":278.5681,"MEAN_ANOMALY":81.5012,"EPHEMERIS_TYPE":0,"CLASSIFICATION_TYPE":"U","NORAD_CAT_ID":67513,"ELEMENT_SET_NO":999,"REV_AT_EPOCH":766,"BSTAR":0.0010327864,"MEAN_MOTION_DOT":0.00028282,"MEAN_MOTION_DDOT":0}]
